{"type": "FeatureCollection", "features": [ {"type": "Feature", "properties": {"norad_id": 66658, "name": "2025-274J", "group": "last-30-days", "lat": 48.706176248042205, "lon": 99.65331810166417, "alt_km": 593.1105495724614, "timestamp": "2025-12-09T11:33:53.576743+00:00", "meta": {"OBJECT_NAME": "2025-274J", "OBJECT_ID": "2025-274J", "EPOCH": "2025-12-08T18:53:29.669280", "MEAN_MOTION": 14.92588768, "ECCENTRICITY": 0.00115527, "INCLINATION": 97.7386, "RA_OF_ASC_NODE": 270.0641, "ARG_OF_PERICENTER": 294.1578, "MEAN_ANOMALY": 65.8433, "EPHEMERIS_TYPE": 0, "CLASSIFICATION_TYPE": "U", "NORAD_CAT_ID": 66658, "ELEMENT_SET_NO": 999, "REV_AT_EPOCH": 181, "BSTAR": 0.00045753621, "MEAN_MOTION_DOT": 4.657e-05, "MEAN_MOTION_DDOT": 0}, "tle": {"line1": "1 66658U 25274J   25342.78714895  .00004657  00000+0  45754-3 0  9995", "line2": "2 66658  97.7386 270.0641 0011552 294.1578  65.8433 14.92588768  1810"}}, "geometry": {"type": "Point", "coordinates": [99.65331810166417, 48.706176248042205]}}, {"type": "Feature", "properties": {"norad_id": 66659, "name": "JACK K", "group": "last-30-days", "lat": 40.32071227618548, "lon": 97.37829424058957, "alt_km": 593.8518371541313, "timestamp": "2025-12-09T11:33:53.576753+00:00", "meta": {"OBJECT_NAME": "JACK K", "OBJECT_ID": "2025-274K", "EPOCH": "2025-12-08T20:27:50.866848", "MEAN_MOTION": 14.92772766, "ECCENTRICITY": 0.0012296, "INCLINATION": 97.7388, "RA_OF_ASC_NODE": 270.1324, "ARG_OF_PERICENTER": 295.0726, "MEAN_ANOMALY": 64.9216, "EPHEMERIS_TYPE": 0, "CLASSIFICATION_TYPE": "U", "NORAD_CAT_ID": 66659, "ELEMENT_SET_NO": 999, "REV_AT_EPOCH": 182, "BSTAR": 0.00033526, "MEAN_MOTION_DOT": 3.413e-05, "MEAN_MOTION_DDOT": 0}, "tle": {"line1": "1 66659U 25274K   25342.85267207  .00003413  00000+0  33526-3 0  9997", "line2": "2 66659  97.7388 270.1324 0012296 295.0726  64.9216 14.92772766  1826"}}, "geometry": {"type": "Point", "coordinates": [97.37829424058957, 40.32071227618548]}}, {"type": "Feature", "properties": {"norad_id": 66660, "name": "K-HERO", "group": "last-30-days", "lat": 33.539735988207966, "lon": 95.92653427306838, "alt_km": 594.3439745341266, "timestamp": "2025-12-09T11:33:53.576763+00:00", "meta": {"OBJECT_NAME": "K-HERO", "OBJECT_ID": "2025-274L", "EPOCH": "2025-12-08T20:26:05.496864", "MEAN_MOTION": 14.92924014, "ECCENTRICITY": 0.0012908, "INCLINATION": 97.7392, "RA_OF_ASC_NODE": 270.1344, "ARG_OF_PERICENTER": 295.6722, "MEAN_ANOMALY": 64.3164, "EPHEMERIS_TYPE": 0, "CLASSIFICATION_TYPE": "U", "NORAD_CAT_ID": 66660, "ELEMENT_SET_NO": 999, "REV_AT_EPOCH": 182, "BSTAR": 0.00037508, "MEAN_MOTION_DOT": 3.841e-05, "MEAN_MOTION_DDOT": 0}, "tle": {"line1": "1 66660U 25274L   25342.85145251  .00003841  00000+0  37508-3 0  9992", "line2": "2 66660  97.7392 270.1344 0012908 295.6722  64.3164 14.92924014  1828"}}, "geometry": {"type": "Point", "coordinates": [95.92653427306838, 33.539735988207966]}}, {"type": "Feature", "properties": {"norad_id": 66661, "name": "SNUGLITE-III", "group": "last-30-days", "lat": 26.666436565299364, "lon": 94.67329810908927, "alt_km": 594.8143698911072, "timestamp": "2025-12-09T11:33:53.576773+00:00", "meta": {"OBJECT_NAME": "SNUGLITE-III", "OBJECT_ID": "2025-274M", "EPOCH": "2025-12-08T18:47:48.328800", "MEAN_MOTION": 14.93068876, "ECCENTRICITY": 0.00135555, "INCLINATION": 97.739, "RA_OF_ASC_NODE": 270.0699, "ARG_OF_PERICENTER": 296.9789, "MEAN_ANOMALY": 63.0046, "EPHEMERIS_TYPE": 0, "CLASSIFICATION_TYPE": "U", "NORAD_CAT_ID": 66661, "ELEMENT_SET_NO": 999, "REV_AT_EPOCH": 181, "BSTAR": 0.00036148161, "MEAN_MOTION_DOT": 3.714e-05, "MEAN_MOTION_DDOT": 0}, "tle": {"line1": "1 66661U 25274M   25342.78319825  .00003714  00000+0  36148-3 0  9993", "line2": "2 66661  97.7390 270.0699 0013555 296.9789  63.0046 14.93068876  1815"}}, "geometry": {"type": "Point", "coordinates": [94.67329810908927, 26.666436565299364]}}, {"type": "Feature", "properties": {"norad_id": 66662, "name": "2025-274N", "group": "last-30-days", "lat": 23.944060894671214, "lon": 94.22054761967644, "alt_km": 594.9415631470329, "timestamp": "2025-12-09T11:33:53.576782+00:00", "meta": {"OBJECT_NAME": "2025-274N", "OBJECT_ID": "2025-274N", "EPOCH": "2025-12-09T02:49:36.319008", "MEAN_MOTION": 14.93115706, "ECCENTRICITY": 0.0013968, "INCLINATION": 97.739, "RA_OF_ASC_NODE": 270.4003, "ARG_OF_PERICENTER": 294.9648, "MEAN_ANOMALY": 65.012, "EPHEMERIS_TYPE": 0, "CLASSIFICATION_TYPE": "U", "NORAD_CAT_ID": 66662, "ELEMENT_SET_NO": 999, "REV_AT_EPOCH": 186, "BSTAR": 0.00022902, "MEAN_MOTION_DOT": 2.335e-05, "MEAN_MOTION_DDOT": 0}, "tle": {"line1": "1 66662U 25274N   25343.11778147  .00002335  00000+0  22902-3 0  9999", "line2": "2 66662  97.7390 270.4003 0013968 294.9648  65.0120 14.93115706  1864"}}, "geometry": {"type": "Point", "coordinates": [94.22054761967644, 23.944060894671214]}}, {"type": "Feature", "properties": {"norad_id": 66663, "name": "KSLV-II R/B", "group": "last-30-days", "lat": -9.799343882546282, "lon": -87.79709905760683, "alt_km": 547.9360814112506, "timestamp": "2025-12-09T11:33:53.576794+00:00", "meta": {"OBJECT_NAME": "KSLV-II R/B", "OBJECT_ID": "2025-274P", "EPOCH": "2025-12-06T19:27:04.446432", "MEAN_MOTION": 14.97226496, "ECCENTRICITY": 0.00484111, "INCLINATION": 97.7412, "RA_OF_ASC_NODE": 268.2109, "ARG_OF_PERICENTER": 339.2416, "MEAN_ANOMALY": 20.6839, "EPHEMERIS_TYPE": 0, "CLASSIFICATION_TYPE": "U", "NORAD_CAT_ID": 66663, "ELEMENT_SET_NO": 999, "REV_AT_EPOCH": 152, "BSTAR": 0.00053388811, "MEAN_MOTION_DOT": 6.269e-05, "MEAN_MOTION_DDOT": 0}, "tle": {"line1": "1 66663U 25274P   25340.81046813  .00006269  00000+0  53389-3 0  9995", "line2": "2 66663  97.7412 268.2109 0048411 339.2416  20.6839 14.97226496  1529"}}, "geometry": {"type": "Point", "coordinates": [-87.79709905760683, -9.799343882546282]}}, {"type": "Feature", "properties": {"norad_id": 66664, "name": "SOYUZ-MS 28", "group": "last-30-days", "lat": -18.58361687548195, "lon": -5.941752640829449, "alt_km": 418.9917855656149, "timestamp": "2025-12-09T11:33:53.576805+00:00", "meta": {"OBJECT_NAME": "SOYUZ-MS 28", "OBJECT_ID": "2025-275A", "EPOCH": "2025-12-08T20:45:25.500672", "MEAN_MOTION": 15.49428834, "ECCENTRICITY": 0.0003381, "INCLINATION": 51.6308, "RA_OF_ASC_NODE": 161.6653, "ARG_OF_PERICENTER": 221.9847, "MEAN_ANOMALY": 138.0883, "EPHEMERIS_TYPE": 0, "CLASSIFICATION_TYPE": "U", "NORAD_CAT_ID": 66664, "ELEMENT_SET_NO": 999, "REV_AT_EPOCH": 184, "BSTAR": 0.00022804, "MEAN_MOTION_DOT": 0.00012323, "MEAN_MOTION_DDOT": 0}, "tle": {"line1": "1 66664U 25275A   25342.86487848  .00012323  00000+0  22804-3 0  9997", "line2": "2 66664  51.6308 161.6653 0003381 221.9847 138.0883 15.49428834  1841"}}, "geometry": {"type": "Point", "coordinates": [-5.941752640829449, -18.58361687548195]}}, {"type": "Feature", "properties": {"norad_id": 66820, "name": "KOMPSAT-7", "group": "last-30-days", "lat": 57.85875461275032, "lon": -82.92190163297975, "alt_km": 572.8908096139312, "timestamp": "2025-12-09T11:33:53.576817+00:00", "meta": {"OBJECT_NAME": "KOMPSAT-7", "OBJECT_ID": "2025-279A", "EPOCH": "2025-12-08T20:52:43.879584", "MEAN_MOTION": 14.98373092, "ECCENTRICITY": 0.0009454, "INCLINATION": 97.64, "RA_OF_ASC_NODE": 288.8147, "ARG_OF_PERICENTER": 234.6864, "MEAN_ANOMALY": 125.3475, "EPHEMERIS_TYPE": 0, "CLASSIFICATION_TYPE": "U", "NORAD_CAT_ID": 66820, "ELEMENT_SET_NO": 999, "REV_AT_EPOCH": 107, "BSTAR": 0.0004038464, "MEAN_MOTION_DOT": 4.761e-05, "MEAN_MOTION_DDOT": 0}, "tle": {"line1": "1 66820U 25279A   25342.86995231  .00004761  00000+0  40385-3 0  9996", "line2": "2 66820  97.6400 288.8147 0009454 234.6864 125.3475 14.98373092  1074"}}, "geometry": {"type": "Point", "coordinates": [-82.92190163297975, 57.85875461275032]}}, {"type": "Feature", "properties": {"norad_id": 66877, "name": "ZQ-3 R/B", "group": "last-30-days", "lat": 12.69707878597618, "lon": -118.36558752638996, "alt_km": 321.52431864132814, "timestamp": "2025-12-09T11:33:53.576830+00:00", "meta": {"OBJECT_NAME": "ZQ-3 R/B", "OBJECT_ID": "2025-282A", "EPOCH": "2025-12-08T14:53:29.353632", "MEAN_MOTION": 14.48659951, "ECCENTRICITY": 0.08242315, "INCLINATION": 56.9533, "RA_OF_ASC_NODE": 73.3202, "ARG_OF_PERICENTER": 212.8744, "MEAN_ANOMALY": 141.8352, "EPHEMERIS_TYPE": 0, "CLASSIFICATION_TYPE": "U", "NORAD_CAT_ID": 66877, "ELEMENT_SET_NO": 999, "REV_AT_EPOCH": 79, "BSTAR": 0.00024383409, "MEAN_MOTION_DOT": 0.01149741, "MEAN_MOTION_DDOT": 7.310405e-06}, "tle": {"line1": "1 66877U 25282A   25342.62047863  .01149741  73104-5  24383-3 0  9995", "line2": "2 66877  56.9533  73.3202 0824231 212.8744 141.8352 14.48659951   794"}}, "geometry": {"type": "Point", "coordinates": [-118.36558752638996, 12.69707878597618]}}, {"type": "Feature", "properties": {"norad_id": 66906, "name": "1998-067XS", "group": "last-30-days", "lat": -31.957491509900674, "lon": 8.193357607465336, "alt_km": 417.37853405610986, "timestamp": "2025-12-09T11:33:53.576840+00:00", "meta": {"OBJECT_NAME": "1998-067XS", "OBJECT_ID": "1998-067XS", "EPOCH": "2025-12-08T22:13:59.028960", "MEAN_MOTION": 15.50272351, "ECCENTRICITY": 0.0004021, "INCLINATION": 51.6297, "RA_OF_ASC_NODE": 161.3264, "ARG_OF_PERICENTER": 185.5281, "MEAN_ANOMALY": 174.5664, "EPHEMERIS_TYPE": 0, "CLASSIFICATION_TYPE": "U", "NORAD_CAT_ID": 66906, "ELEMENT_SET_NO": 999, "REV_AT_EPOCH": 102, "BSTAR": 0.000538, "MEAN_MOTION_DOT": 0.0003067, "MEAN_MOTION_DDOT": 0}, "tle": {"line1": "1 66906U 98067XS  25342.92637765  .00030670  00000+0  53800-3 0  9992", "line2": "2 66906  51.6297 161.3264 0004021 185.5281 174.5664 15.50272351  1026"}}, "geometry": {"type": "Point", "coordinates": [8.193357607465336, -31.957491509900674]}}]}